IRIDIUM 36              
1 24967U 97056C   24143.49531527  .00001020  00000+0  33906-3 0  9991
2 24967  86.3957 337.0857 0002087  92.7843 267.3593 14.36807172396104
IRIDIUM 39              
1 25042U 97069D   24143.16321189  .00001342  00000+0  35575-3 0  9996
2 25042  86.3946  18.6901 0018581 164.6350 195.5421 14.47953983392356
IRIDIUM 42              
1 25077U 97077A   24143.25452914  .00000892  00000+0  30304-3 0  9998
2 25077  86.3992  43.2463 0001913  70.2189 289.9213 14.35564216385099
IRIDIUM 44              
1 25078U 97077B   24143.21457966  .00001029  00000+0  32473-3 0  9999
2 25078  86.3986  26.2427 0001212 141.4477 218.6809 14.39397934387443
IRIDIUM 45              
1 25104U 97082A   24143.31946535  .00014024  00000+0  79085-3 0  9990
2 25104  86.3760 234.3807 0159268 334.1557  25.1779 15.02804871392977
IRIDIUM 24              
1 25105U 97082B   24143.33495029  .00001300  00000+0  39694-3 0  9995
2 25105  86.3925 245.8081 0009400 292.3184  67.7019 14.41179021386904
IRIDIUM 51              
1 25262U 98018A   24143.34872575  .00017742  00000+0  83668-3 0  9992
2 25262  86.3987 244.2621 0144682 277.7719  80.7113 15.10451443387518
